NORAD_CAT_ID,OBJECT_NAME,OBJECT_TYPE,EPOCH,MEAN_MOTION,ECCENTRICITY,INCLINATION,RA_OF_ASC_NODE,ARG_OF_PERICENTER,MEAN_ANOMALY,BSTAR,MEAN_MOTION_DOT,MEAN_MOTION_DDOT,TLE_LINE0,TLE_LINE1,TLE_LINE2,SEMIMAJOR_AXIS,PERIOD,APOGEE,PERIGEE,DECAYED
52561.0,STARLINK-3955,PAYLOAD,2024-05-24 20:11:02,15.0883321,0.0001394,53.2145,189.3556,140.3802,219.7292,2.4789e-05,1.07e-06,0.0,0 STARLINK-3955,1 52561U 22051AE  24145.84100429  .00000107  00000-0  24789-4 0  9995,2 52561  53.2145 189.3556 0001394 140.3802 219.7292 15.08833210112730,6917.901,95.438,540.73,538.802,0.0
52561.0,STARLINK-3955,PAYLOAD,2024-05-25 10:29:30,15.08844012,0.0001378,53.2145,186.6869,89.5471,270.5679,0.00015742,2.219e-05,0.0,0 STARLINK-3955,1 52561U 22051AE  24146.43716332  .00002219  00000-0  15742-3 0  9991,2 52561  53.2145 186.6869 0001378  89.5471 270.5679 15.08844012112821,6917.868,95.437,540.686,538.78,0.0
52561.0,STARLINK-3955,PAYLOAD,2024-05-26 08:44:54,15.088441,0.0001373,53.214,182.5223,94.9315,265.1834,5.8542e-05,6.44e-06,0.0,0 STARLINK-3955,1 52561U 22051AE  24147.36452300  .00000644  00000-0  58542-4 0  9992,2 52561  53.2140 182.5223 0001373  94.9315 265.1834 15.08844100112895,6917.868,95.437,540.683,538.783,0.0
52561.0,STARLINK-3955,PAYLOAD,2024-05-27 08:35:44,15.08745079,7.7e-05,53.2152,178.0724,284.5465,75.5442,-0.0035995,-0.00056971,0.0,0 STARLINK-3955,1 52561U 22051AE  24148.35815487 -.00056971  00000-0 -35995-2 0  9992,2 52561  53.2152 178.0724 0000770 284.5465  75.5442 15.08745079113116,6918.171,95.444,540.568,539.503,0.0
52561.0,STARLINK-3955,PAYLOAD,2024-05-28 05:15:42,15.08839131,0.0001432,53.2167,174.1972,94.3069,265.8087,6.2532e-05,7.07e-06,0.0,0 STARLINK-3955,1 52561U 22051AE  24149.21924453  .00000707  00000-0  62532-4 0  9995,2 52561  53.2167 174.1972 0001432  94.3069 265.8087 15.08839131113243,6917.883,95.438,540.739,538.757,0.0
52561.0,STARLINK-3955,PAYLOAD,2024-05-28 08:26:28,15.08839046,0.0001427,53.2168,173.6025,95.9133,264.2022,5.0927e-05,5.23e-06,0.0,0 STARLINK-3955,1 52561U 22051AE  24149.35172425  .00000523  00000-0  50927-4 0  9995,2 52561  53.2168 173.6025 0001427  95.9133 264.2022 15.08839046113191,6917.883,95.438,540.735,538.761,0.0
52561.0,STARLINK-3955,PAYLOAD,2024-05-29 11:28:02,15.08838213,0.0001404,53.2166,168.5472,97.396,262.7191,2.2497e-05,7e-07,0.0,0 STARLINK-3955,1 52561U 22051AE  24150.47780545  .00000070  00000-0  22497-4 0  9996,2 52561  53.2166 168.5472 0001404  97.3960 262.7191 15.08838213113439,6917.886,95.438,540.722,538.78,0.0
52561.0,STARLINK-3955,PAYLOAD,2024-05-30 11:18:49,15.0884025,0.0001438,53.2158,164.0868,89.17,270.9457,8.9158e-05,1.131e-05,0.0,0 STARLINK-3955,1 52561U 22051AE  24151.47140497  .00001131  00000-0  89158-4 0  9999,2 52561  53.2158 164.0868 0001438  89.1700 270.9457 15.08840250113517,6917.88,95.438,540.739,538.75,0.0
52561.0,STARLINK-3955,PAYLOAD,2024-05-31 04:48:04,15.08837766,0.000132,53.2157,160.8154,96.693,263.4212,6.0371e-05,6.73e-06,0.0,0 STARLINK-3955,1 52561U 22051AE  24152.20004813  .00000673  00000-0  60371-4 0  9998,2 52561  53.2157 160.8154 0001320  96.6930 263.4212 15.08837766113699,6917.887,95.438,540.665,538.839,0.0
52561.0,STARLINK-3955,PAYLOAD,2024-05-31 09:34:13,15.08838036,0.0001247,53.2157,159.9232,93.5513,266.5622,6.0386e-05,6.73e-06,0.0,0 STARLINK-3955,1 52561U 22051AE  24152.39876849  .00000673  00000-0  60386-4 0  9990,2 52561  53.2157 159.9232 0001247  93.5513 266.5622 15.08838036113652,6917.886,95.438,540.614,538.889,0.0
52561.0,STARLINK-3955,PAYLOAD,2024-05-31 17:31:09,15.08842719,0.0001299,53.2165,158.435,85.1112,275.0028,-1.0894e-05,-4.61e-06,0.0,0 STARLINK-3955,1 52561U 22051AE  24152.72996724 -.00000461  00000-0 -10894-4 0  9998,2 52561  53.2165 158.4350 0001299  85.1112 275.0028 15.08842719113709,6917.872,95.437,540.636,538.838,0.0
52561.0,STARLINK-3955,PAYLOAD,2024-06-01 07:49:37,15.08838309,0.000132,53.2161,155.7595,88.3188,271.7956,3.0131e-05,1.92e-06,0.0,0 STARLINK-3955,1 52561U 22051AE  24153.32613112  .00000192  00000-0  30131-4 0  9997,2 52561  53.2161 155.7595 0001320  88.3188 271.7956 15.08838309113869,6917.886,95.438,540.664,538.837,0.0
52561.0,STARLINK-3955,PAYLOAD,2024-06-02 06:04:59,15.08858847,0.0001313,53.2155,151.5979,89.2268,270.8874,0.00023559,3.465e-05,0.0,0 STARLINK-3955,1 52561U 22051AE  24154.25347076  .00003465  00000-0  23559-3 0  9994,2 52561  53.2155 151.5979 0001313  89.2268 270.8874 15.08858847114008,6917.823,95.436,540.596,538.779,0.0
52561.0,STARLINK-3955,PAYLOAD,2024-06-02 07:40:21,15.08872158,0.000151,53.2169,151.2994,88.1857,271.9308,0.00035135,5.313e-05,0.0,0 STARLINK-3955,1 52561U 22051AE  24154.31969896  .00005313  00000-0  35135-3 0  9998,2 52561  53.2169 151.2994 0001510  88.1857 271.9308 15.08872158114014,6917.782,95.436,540.692,538.603,0.0
52561.0,STARLINK-3955,PAYLOAD,2024-06-03 05:55:47,15.0884609,0.0001536,53.2173,147.1367,94.1732,265.9435,0.0001134,1.518e-05,0.0,0 STARLINK-3955,1 52561U 22051AE  24155.24707896  .00001518  00000-0  11340-3 0  9996,2 52561  53.2173 147.1367 0001536  94.1732 265.9435 15.08846090114159,6917.862,95.437,540.789,538.664,0.0
52561.0,STARLINK-3955,PAYLOAD,2024-06-03 17:03:30,15.08834782,0.0001407,53.2166,145.0542,97.5547,262.5605,-1.7961e-05,-5.74e-06,0.0,0 STARLINK-3955,1 52561U 22051AE  24155.71076867 -.00000574  00000-0 -17961-4 0  9994,2 52561  53.2166 145.0542 0001407  97.5547 262.5605 15.08834782114226,6917.896,95.438,540.735,538.788,0.0
52561.0,STARLINK-3955,PAYLOAD,2024-06-04 05:46:35,15.08834336,0.0001344,53.2167,142.6756,97.8598,262.2547,-3.287e-05,-8.11e-06,0.0,0 STARLINK-3955,1 52561U 22051AE  24156.24068989 -.00000811  00000-0 -32870-4 0  9999,2 52561  53.2167 142.6756 0001344  97.8598 262.2547 15.08834336114234,6917.898,95.438,540.692,538.833,0.0
52561.0,STARLINK-3955,PAYLOAD,2024-06-05 05:37:22,15.08833663,0.0001513,53.2165,138.2166,99.0468,261.0696,0.00010643,1.406e-05,0.0,0 STARLINK-3955,1 52561U 22051AE  24157.23428637  .00001406  00000-0  10643-3 0  9991,2 52561  53.2165 138.2166 0001513  99.0468 261.0696 15.08833663114454,6917.9,95.438,540.811,538.718,0.0
52561.0,STARLINK-3955,PAYLOAD,2024-06-05 08:48:08,15.08835662,0.0001519,53.2164,137.6217,98.9155,261.2009,0.00012004,1.623e-05,0.0,0 STARLINK-3955,1 52561U 22051AE  24157.36676543  .00001623  00000-0  12004-3 0  9990,2 52561  53.2164 137.6217 0001519  98.9155 261.2009 15.08835662114406,6917.894,95.438,540.809,538.708,0.0
52561.0,STARLINK-3955,PAYLOAD,2024-06-05 23:06:37,15.08829678,0.0001541,53.2171,134.9453,98.6688,261.4479,8.9659e-05,1.139e-05,0.0,0 STARLINK-3955,1 52561U 22051AE  24157.96293390  .00001139  00000-0  89659-4 0  9994,2 52561  53.2171 134.9453 0001541  98.6688 261.4479 15.08829678114491,6917.912,95.438,540.843,538.711,0.0
52561.0,STARLINK-3955,PAYLOAD,2024-06-06 05:28:09,15.08834844,0.0001547,53.2172,133.7565,98.8457,261.271,0.00012226,1.658e-05,0.0,0 STARLINK-3955,1 52561U 22051AE  24158.22789161  .00001658  00000-0  12226-3 0  9991,2 52561  53.2172 133.7565 0001547  98.8457 261.2710 15.08834844114537,6917.896,95.438,540.831,538.691,0.0
52561.0,STARLINK-3955,PAYLOAD,2024-06-06 15:00:28,15.08833854,0.0001489,53.217,131.9727,97.9098,262.2063,6.2634e-05,7.09e-06,0.0,0 STARLINK-3955,1 52561U 22051AE  24158.62533559  .00000709  00000-0  62634-4 0  9998,2 52561  53.2170 131.9727 0001489  97.9098 262.2063 15.08833854114599,6917.899,95.438,540.794,538.734,0.0
52561.0,STARLINK-3955,PAYLOAD,2024-06-06 21:22:01,15.08836962,0.0001465,53.217,130.7836,95.9758,264.1401,4.2048e-05,3.81e-06,0.0,0 STARLINK-3955,1 52561U 22051AE  24158.89029595  .00000381  00000-0  42048-4 0  9990,2 52561  53.2170 130.7836 0001465  95.9758 264.1401 15.08836962114705,6917.89,95.438,540.768,538.741,0.0
52561.0,STARLINK-3955,PAYLOAD,2024-06-07 14:51:16,15.08837799,0.0001469,53.217,127.5123,93.6999,266.4161,4.1286e-05,3.69e-06,0.0,0 STARLINK-3955,1 52561U 22051AE  24159.61893778  .00000369  00000-0  41286-4 0  9992,2 52561  53.2170 127.5123 0001469  93.6999 266.4161 15.08837799114745,6917.887,95.438,540.768,538.736,0.0
52561.0,STARLINK-3955,PAYLOAD,2024-06-07 21:12:48,15.08838501,0.0001461,53.2169,126.3225,90.2573,269.8586,0.00010231,1.341e-05,0.0,0 STARLINK-3955,1 52561U 22051AE  24159.88389655  .00001341  00000-0  10231-3 0  9991,2 52561  53.2169 126.3225 0001461  90.2573 269.8586 15.08838501114780,6917.885,95.438,540.761,538.739,0.0
52561.0,STARLINK-3955,PAYLOAD,2024-06-08 05:09:44,15.08844881,0.0001464,53.2171,124.8354,88.5048,271.6112,0.00012003,1.623e-05,0.0,0 STARLINK-3955,1 52561U 22051AE  24160.21509281  .00001623  00000-0  12003-3 0  9991,2 52561  53.2171 124.8354 0001464  88.5048 271.6112 15.08844881114907,6917.865,95.437,540.743,538.718,0.0
52561.0,STARLINK-3955,PAYLOAD,2024-06-08 14:42:03,15.08839973,0.0001389,53.2155,123.0488,89.3229,270.7922,6.7536e-05,7.87e-06,0.0,0 STARLINK-3955,1 52561U 22051AE  24160.61253661  .00000787  00000-0  67536-4 0  9995,2 52561  53.2155 123.0488 0001389  89.3229 270.7922 15.08839973114897,6917.88,95.438,540.706,538.785,0.0
52561.0,STARLINK-3955,PAYLOAD,2024-06-09 14:32:50,15.08837271,0.0001339,53.2159,118.5898,92.6325,267.4821,4.113e-05,3.67e-06,0.0,0 STARLINK-3955,1 52561U 22051AE  24161.60614141  .00000367  00000-0  41130-4 0  9995,2 52561  53.2159 118.5898 0001339  92.6325 267.4821 15.08837271115042,6917.889,95.438,540.68,538.827,0.0
52561.0,STARLINK-3955,PAYLOAD,2024-06-09 20:54:23,15.08835187,0.0001455,53.2157,117.4003,93.723,266.3928,1.1714e-05,-1.02e-06,0.0,0 STARLINK-3955,1 52561U 22051AE  24161.87110440 -.00000102  00000-0  11714-4 0  9990,2 52561  53.2157 117.4003 0001455  93.7230 266.3928 15.08835187115154,6917.895,95.438,540.767,538.754,0.0
52561.0,STARLINK-3955,PAYLOAD,2024-06-10 14:23:37,15.08841024,0.0001427,53.2175,114.1283,98.4637,261.6517,-1.7635e-05,-5.69e-06,0.0,0 STARLINK-3955,1 52561U 22051AE  24162.59974289 -.00000569  00000-0 -17635-4 0  9995,2 52561  53.2175 114.1283 0001427  98.4637 261.6517 15.08841024115193,6917.877,95.437,540.729,538.755,0.0
